{
  "type": "FeatureCollection",
  "features": [
    {
      "type": "Feature",
      "properties": {
        "norad_id": 37781,
        "name": "HAIYANG-2A",
        "group": "resource",
        "lat": -80.50681116591801,
        "lon": 96.71655580278791,
        "alt_km": 976.4738935423547,
        "timestamp": "2025-12-21T14:40:47.567535+00:00",
        "meta_object_name": "HAIYANG-2A",
        "meta_object_id": "2011-043A",
        "meta_epoch": "2025-12-21T06:24:59.250816",
        "meta_mean_motion": 13.78836469,
        "meta_eccentricity": 0.00016388,
        "meta_inclination": 99.3371,
        "meta_ra_of_asc_node": 356.0705,
        "meta_arg_of_pericenter": 72.01,
        "meta_mean_anomaly": 288.123,
        "meta_ephemeris_type": 0,
        "meta_classification_type": "U",
        "meta_norad_cat_id": 37781,
        "meta_element_set_no": 999,
        "meta_rev_at_epoch": 72216,
        "meta_bstar": 0.00014580691,
        "meta_mean_motion_dot": 1.04e-06,
        "meta_mean_motion_ddot": 0,
        "tle_line1": "1 37781U 11043A   25355.26735244  .00000104  00000+0  14581-3 0  9994",
        "tle_line2": "2 37781  99.3371 356.0705 0001638  72.0100 288.1230 13.78836469722161"
      },
      "geometry": {
        "type": "Point",
        "coordinates": [
          96.71655580278791,
          -80.50681116591801
        ]
      }
    },
    {
      "type": "Feature",
      "properties": {
        "norad_id": 37791,
        "name": "RASAT",
        "group": "resource",
        "lat": -14.766978362770645,
        "lon": 86.88011590472536,
        "alt_km": 663.3005298812077,
        "timestamp": "2025-12-21T14:40:47.567545+00:00",
        "meta_object_name": "RASAT",
        "meta_object_id": "2011-044D",
        "meta_epoch": "2025-12-21T06:59:44.150208",
        "meta_mean_motion": 14.67919364,
        "meta_eccentricity": 0.00215018,
        "meta_inclination": 98.0652,
        "meta_ra_of_asc_node": 84.4227,
        "meta_arg_of_pericenter": 39.3012,
        "meta_mean_anomaly": 55.1257,
        "meta_ephemeris_type": 0,
        "meta_classification_type": "U",
        "meta_norad_cat_id": 37791,
        "meta_element_set_no": 999,
        "meta_rev_at_epoch": 76708,
        "meta_bstar": 3.5498074e-05,
        "meta_mean_motion_dot": 1.55e-06,
        "meta_mean_motion_ddot": 0,
        "tle_line1": "1 37791U 11044D   25355.29148322  .00000155  00000+0  35498-4 0  9991",
        "tle_line2": "2 37791  98.0652  84.4227 0021501  39.3012  55.1257 14.67919364767086"
      },
      "geometry": {
        "type": "Point",
        "coordinates": [
          86.88011590472536,
          -14.766978362770645
        ]
      }
    },
    {
      "type": "Feature",
      "properties": {
        "norad_id": 37841,
        "name": "SRMSAT",
        "group": "resource",
        "lat": -19.174458352350257,
        "lon": -52.52051019682521,
        "alt_km": 861.9355971130999,
        "timestamp": "2025-12-21T14:40:47.567555+00:00",
        "meta_object_name": "SRMSAT",
        "meta_object_id": "2011-058D",
        "meta_epoch": "2025-12-21T05:09:06.003648",
        "meta_mean_motion": 14.11514057,
        "meta_eccentricity": 0.00119639,
        "meta_inclination": 19.9726,
        "meta_ra_of_asc_node": 56.6591,
        "meta_arg_of_pericenter": 46.4433,
        "meta_mean_anomaly": 346.0318,
        "meta_ephemeris_type": 0,
        "meta_classification_type": "U",
        "meta_norad_cat_id": 37841,
        "meta_element_set_no": 999,
        "meta_rev_at_epoch": 73264,
        "meta_bstar": 6.4007523e-05,
        "meta_mean_motion_dot": 3.83e-06,
        "meta_mean_motion_ddot": 0,
        "tle_line1": "1 37841U 11058D   25355.21465282  .00000383  00000+0  64008-4 0  9993",
        "tle_line2": "2 37841  19.9726  56.6591 0011963  46.4433 346.0318 14.11514057732641"
      },
      "geometry": {
        "type": "Point",
        "coordinates": [
          -52.52051019682521,
          -19.174458352350257
        ]
      }
    },
    {
      "type": "Feature",
      "properties": {
        "norad_id": 38012,
        "name": "PLEIADES 1A",
        "group": "resource",
        "lat": -22.28209464356008,
        "lon": -115.13619645139528,
        "alt_km": 703.6620104099729,
        "timestamp": "2025-12-21T14:40:47.567565+00:00",
        "meta_object_name": "PLEIADES 1A",
        "meta_object_id": "2011-076F",
        "meta_epoch": "2025-12-21T07:30:44.159040",
        "meta_mean_motion": 14.58568138,
        "meta_eccentricity": 0.00011501,
        "meta_inclination": 98.1821,
        "meta_ra_of_asc_node": 67.9497,
        "meta_arg_of_pericenter": 76.5836,
        "meta_mean_anomaly": 358.5763,
        "meta_ephemeris_type": 0,
        "meta_classification_type": "U",
        "meta_norad_cat_id": 38012,
        "meta_element_set_no": 999,
        "meta_rev_at_epoch": 74606,
        "meta_bstar": 4.5139661e-05,
        "meta_mean_motion_dot": 1.64e-06,
        "meta_mean_motion_ddot": 0,
        "tle_line1": "1 38012U 11076F   25355.31301110  .00000164  00000+0  45140-4 0  9997",
        "tle_line2": "2 38012  98.1821  67.9497 0001150  76.5836 358.5763 14.58568138746068"
      },
      "geometry": {
        "type": "Point",
        "coordinates": [
          -115.13619645139528,
          -22.28209464356008
        ]
      }
    },
    {
      "type": "Feature",
      "properties": {
        "norad_id": 38038,
        "name": "ZIYUAN 1-02C (ZY 1-02C)",
        "group": "resource",
        "lat": 4.7761471982019374,
        "lon": -117.82771265423324,
        "alt_km": 764.6699960132091,
        "timestamp": "2025-12-21T14:40:47.567575+00:00",
        "meta_object_name": "ZIYUAN 1-02C (ZY 1-02C)",
        "meta_object_id": "2011-079A",
        "meta_epoch": "2025-12-21T07:32:49.058880",
        "meta_mean_motion": 14.38020984,
        "meta_eccentricity": 0.00074837,
        "meta_inclination": 98.4329,
        "meta_ra_of_asc_node": 61.1704,
        "meta_arg_of_pericenter": 115.9574,
        "meta_mean_anomaly": 321.318,
        "meta_ephemeris_type": 0,
        "meta_classification_type": "U",
        "meta_norad_cat_id": 38038,
        "meta_element_set_no": 999,
        "meta_rev_at_epoch": 73364,
        "meta_bstar": 0.00014856727,
        "meta_mean_motion_dot": 4.06e-06,
        "meta_mean_motion_ddot": 0,
        "tle_line1": "1 38038U 11079A   25355.31445670  .00000406  00000+0  14857-3 0  9997",
        "tle_line2": "2 38038  98.4329  61.1704 0007483 115.9574 321.3180 14.38020984733642"
      },
      "geometry": {
        "type": "Point",
        "coordinates": [
          -117.82771265423324,
          4.7761471982019374
        ]
      }
    },
    {
      "type": "Feature",
      "properties": {
        "norad_id": 38338,
        "name": "ARIRANG-3 (KOMPSAT-3)",
        "group": "resource",
        "lat": -20.330319143102205,
        "lon": 127.15517498388941,
        "alt_km": 693.8402508420859,
        "timestamp": "2025-12-21T14:40:47.567586+00:00",
        "meta_object_name": "ARIRANG-3 (KOMPSAT-3)",
        "meta_object_id": "2012-025B",
        "meta_epoch": "2025-12-21T07:11:37.638816",
        "meta_mean_motion": 14.61723077,
        "meta_eccentricity": 0.00048556,
        "meta_inclination": 98.3335,
        "meta_ra_of_asc_node": 309.9541,
        "meta_arg_of_pericenter": 308.6967,
        "meta_mean_anomaly": 51.3799,
        "meta_ephemeris_type": 0,
        "meta_classification_type": "U",
        "meta_norad_cat_id": 38338,
        "meta_element_set_no": 999,
        "meta_rev_at_epoch": 72535,
        "meta_bstar": 9.797126e-05,
        "meta_mean_motion_dot": 4.4e-06,
        "meta_mean_motion_ddot": 0,
        "tle_line1": "1 38338U 12025B   25355.29974119  .00000440  00000+0  97971-4 0  9991",
        "tle_line2": "2 38338  98.3335 309.9541 0004855 308.6967  51.3799 14.61723077725354"
      },
      "geometry": {
        "type": "Point",
        "coordinates": [
          127.15517498388941,
          -20.330319143102205
        ]
      }
    },
    {
      "type": "Feature",
      "properties": {
        "norad_id": 38709,
        "name": "EXACTVIEW-1 (ADS-1B)",
        "group": "resource",
        "lat": 72.7201639004341,
        "lon": -45.322217341639224,
        "alt_km": 807.1574316467104,
        "timestamp": "2025-12-21T14:40:47.567633+00:00",
        "meta_object_name": "EXACTVIEW-1 (ADS-1B)",
        "meta_object_id": "2012-039C",
        "meta_epoch": "2025-12-21T05:45:48.949632",
        "meta_mean_motion": 14.24911126,
        "meta_eccentricity": 0.00102647,
        "meta_inclination": 98.9638,
        "meta_ra_of_asc_node": 103.8086,
        "meta_arg_of_pericenter": 328.9427,
        "meta_mean_anomaly": 31.1144,
        "meta_ephemeris_type": 0,
        "meta_classification_type": "U",
        "meta_norad_cat_id": 38709,
        "meta_element_set_no": 999,
        "meta_rev_at_epoch": 69736,
        "meta_bstar": 6.8926878e-05,
        "meta_mean_motion_dot": 1.15e-06,
        "meta_mean_motion_ddot": 0,
        "tle_line1": "1 38709U 12039C   25355.24014988  .00000115  00000+0  68927-4 0  9990",
        "tle_line2": "2 38709  98.9638 103.8086 0010264 328.9427  31.1144 14.24911126697362"
      },
      "geometry": {
        "type": "Point",
        "coordinates": [
          -45.322217341639224,
          72.7201639004341
        ]
      }
    }
  ]
}